[{"OBJECT_NAME":"STARLINK-30402","OBJECT_ID":"2023-138V","EPOCH":"2026-03-09T22:00:01.999584","MEAN_MOTION":15.25118124,"ECCENTRICITY":0.00016397,"INCLINATION":42.9996,"RA_OF_ASC_NODE":232.7467,"ARG_OF_PERICENTER":315.8136,"MEAN_ANOMALY":84.1579,"EPHEMERIS_TYPE":0,"CLASSIFICATION_TYPE":"U","NORAD_CAT_ID":57827,"ELEMENT_SET_NO":999,"REV_AT_EPOCH":572,"BSTAR":0.035382216,"MEAN_MOTION_DOT":0.00981389,"MEAN_MOTION_DDOT":0},{"OBJECT_NAME":"ANSER FOLLOWER 2","OBJECT_ID":"2023-155C","EPOCH":"2026-03-05T19:43:56.461728","MEAN_MOTION":15.37516487,"ECCENTRICITY":6.896e-5,"INCLINATION":97.5578,"RA_OF_ASC_NODE":150.2317,"ARG_OF_PERICENTER":152.695,"MEAN_ANOMALY":207.4331,"EPHEMERIS_TYPE":0,"CLASSIFICATION_TYPE":"U","NORAD_CAT_ID":58018,"ELEMENT_SET_NO":999,"REV_AT_EPOCH":13302,"BSTAR":0.00060275793,"MEAN_MOTION_DOT":0.00022135,"MEAN_MOTION_DDOT":0}]
